record_id,fname,lname,stNo,add1,add2,city,areacode,state,dob,ssn
rec-7880-org, liam, berry, 12, learmonth drive, lynden park stud, broken hill, 6014, vic, 19271005, 5315721
rec-54255-org, felicity, stephenson, 11, , the rookery, duncraig, 3012, qld, 19531111, 3765432
rec-24540-org, bethany, tu, 8, antill street, longstay caravn park, upper brookfield, 4211, tas, 19781230, 1345472
rec-61144-org, anita, lutz, 9, adinda street, brentwood village, bokarina, 3806, qld, 19021023, 9192121
rec-76431-org, amber, white, 41, oxley street, quarter deck, toowoomba, 4169, vic, 19351010, 1468300
rec-96533-org, michael, webb, 2, lyster place, , glenella, 2572, sa, 19210224, 8072876
rec-54907-org, mikaela, wiseman, 71, littler place, killarney park, morphettville, 2774, nsw, 19351117, 9810844
rec-95638-org, ryley, george, 10, araluen street, hopefield, alice springs, 5043, vic, 19341223, 1186509
rec-33506-org, isabelle, coffey, 3, michie street, tathra, chisholm, 4216, qld, , 7934987
rec-26532-org, danielle, pettingill, 5, narrabundah lane, ash-mere, wy yung, 2074, , 19201019, 4108963
rec-10498-org, isabella, green, 10, duffy street, main beach medical centre, ringwood, 2193, qld, 19520908, 6225674
rec-49329-org, rhiannon, povey, 57, william hudson crescent, boxgrove, oyster bay, 3168, vic, 19080905, 7333825
rec-43003-org, damien, ryan, 35, newman morris circuit, rosetta village, labrador, 6306, vic, 19010513, 8740643
rec-91840-org, emma, tomney, 37, mindarie street, winchester, mount gravatt, 2036, vic, 19870723, 7832208
rec-7682-org, hayden, ludgate, 3, hoddle garden, , burwood, 7470, nsw, 19290514, 5068436
rec-106-dup-2, savannah, kwoun, 1, ballumbir estreet, craigie-lea, culburra, 4304, vic, 19170126, 9299364
rec-49446-org, cade, pontifex, 12, lampard circuit, , wantirna, 2097, nsw, 19760302, 9825269
rec-80263-org, alana, netherton, 67, mcdowall place, crookhorn, preston west, 2647, vic, 19490228, 3514390
rec-63408-dup-0, alexandra, coffey, 5, armstrong crescent, , lobethal, 2046, qld, 19900902, 1567831
rec-24554-org, sean, hearn, 19, faunce crescent, the villas north, woy woy, 2077, qld, 19611014, 2059899
rec-85560-org, tegan, vaccaro, 8, lloyd place, kularoo garden, flinders park, 4129, vic, 19180509, 5768359
rec-6503-org, tuscany, renfrey, 1, jennings street, wangrah, yarrawonga, 2195, nsw, 19301003, 6663064
rec-52068-org, molly, dakis, 8, walu street, sec 209 clifton farm, willagee, 2118, vic, 19200129, 4940691
rec-39100-org, emiily, crosswell, 25, roope close, unt 1, yorkeys knob, 4570, wa, 19521227, 5399048
rec-22187-org, emma, gloster, 4, latchford street, wanniassa medical centre, manly vale, 2304, wa, 19860318, 1017830
rec-13256-org, daniel, moody, 5, freda bennett circuit, kookaburra village, burpengary, 4520, nsw, 19541216, 3177458
rec-60012-org, stirling, tebb, 1, bushby close, woolen park, campbelltown, 3130, wa, 19210622, 7621409
rec-75424-org, sebastian, trainor, 15, cobby street, murrumbar, granville, 2762, qld, 19520705, 5300531
rec-84151-org, erin, powdith, 180, maribyrnong avenue, , north hobart, 4510, vic, 19240923, 9113603
rec-49108-org, danjel, wilkins, 34, monaro crescent, gairdner road, windsor, 3936, nsw, 19710316, 2007728
rec-93686-org, blake, morrison, 6, tristania street, gracemere grdns, taringa, 4470, nsw, 19761118, 2109028
rec-83210-org, jessica, braithwaite, 61, osburn drive, australia fair medical west centre, blair athol, 2154, nsw, 19310402, 8427612
rec-86435-org, , sferco, 24, reuther street, brentwood vlge, bunbury, 4380, vic, 19400521, 2604498
rec-46065-org, finnbar, dods, 25, , centennial glen, mayfield, 5353, nsw, 19630820, 1880250
rec-14613-org, jessica, weaver, 6, illawarra court, the meadows, glenbrook, 2176, nsw, 19880615, 6029804
rec-72447-org, isabella, scerri, 34, druitt place, brightling park, nhill, 3095, vic, 19880604, 4871703
rec-37071-org, esther, garnett, 78, noel ryan garden, ra 23012, thornlie, 6437, vic, 19101225, 7104404
rec-19564-org, eva, schaber, 7, arabana street, greystanes, rosebud, 4215, nsw, 19770105, 8764598
rec-44123-org, gemaley, edson, 29, vonwiller crescent, nazareth village, yarraville, 2116, nsw, 19090709, 9139341
rec-78787-dup-2, sophie, hampn, 14, fuller street, gold ridge, newmarket, 5125, vic, 19300726, 2597219
rec-79827-org, alexandra, mcsorley, 21, shackleton circuit, sunbury, bomaderry, 3162, sa, 19870711, 6271549
rec-81262-org, lucas, browne, 11, de little circuit, old post office, oakleigh, 4132, qld, 19340418, 7279633
rec-75037-dup-1, tuting, seth, 140, bourke street, dunmunkle lodge, athelsyone, 5093, vic, 19560423, 9565920
rec-66078-org, holly, rothe, 3, euree street, comer, molloy island, 5211, qld, 19300504, 8558775
rec-69125-org, katherine, george, 20, archibald street, banksia village, murtoa, 7008, nsw, 19450112, 9597797
rec-1199-org, sarah, jolly, 185, hughes crescent, , westbury, 4151, nsw, 19020820, 1213932
rec-51675-org, shaun, carbone, 2, , selassie house, thornlands, 4800, vic, 19001104, 8712415
rec-94007-org, ethan, constance, 39, osburn drive, paraquilia, para hills, 3380, vic, 19950718, 4541189
rec-68441-dup-1, lewis, cadmf, 81, buik place, caroona village, cambridge gardens, 4870, tas, , 8759293
rec-78160-dup-2, summer, birdling, 77, badenoch crescent, avoneligh, merino, 6150, wa, 19790719, 3638607
rec-13926-org, ella, paterson, 53, armstrong crescent, eden lea, glenbrook, 2170, vic, 19230823, 2421174
rec-45760-org, joshua, glass, 187, hibiscus crescent, bindaree, mooroolbark, 2620, nsw, 19300826, 4449926
rec-72241-org, toby, morrison, 28, fitzgerald street, kimbla, narrandera, 2316, nsw, 19851219, 3079236
rec-89510-org, tiana, kelley, 20, o'halloran circuit, berkeley vlge, mount eliza, 3280, vic, 19610228, 2155191
rec-12223-org, mitchell, every, 10, henry melville crescent, eastwood cottage, burwood, 2088, nsw, 19891230, 5742347
rec-28698-org, ellouise, boyle, , aspinall street, boronia, asquith, 2216, nsw, 19810712, 6228582
rec-7775-org, monique, wilkins, 140, belconnen way, mount sandiman, yarramalong, 2168, vic, 19291004, 4994516
rec-57519-org, luca, godfrey, 40, etheridge street, lassaan, crestmead, 2265, nsw, 19580824, 4703562
rec-9754-org, zachary, reid, 116, hytten place, , plumpton, 2037, nsw, 19600329, 4151014
rec-78689-dup-1, joshua, slack-smith, 18, graceplace, nareen gardons hostel, wynnum west, 6064, nsw, 19461121, 3005201
rec-6468-org, liam, verner, 5, wheeler crescent, the palms village, atherton, 3199, vic, 19961117, 8297984
rec-87325-org, liam, piryak, 55, ogilby crescent, forestvale, campsie, 2017, nsw, 19521101, 6007587
rec-51584-org, katelyn, allsopp, 23, oxley street, high grove, condell park, 7113, nsw, 19950623, 2660415
rec-502-dup-2, angelina, blunedn, 476, painterkplace, doubtful ck, parkdale, 3550, vic, 19000126, 5248044
rec-27992-org, brodie, parremore, 13, vagabond crescent, nareen gardens hostel, coromandel valley, 2487, nsw, 19430521, 3749654
rec-50901-org, jackson, statton, 21, gawler crescent, marylebone, old erowal bay, 2232, vic, 19130409, 6144591
rec-72719-dup-1, andrw, cross well, 34, mckinnon street, extension, bateman, 5169, nsw, 19260222, 5443954
rec-20218-org, eliza, cresp, 845, ormond street, montessa heights, adelong, 2162, qld, 19931204, 5525425
rec-50632-dup-1, nicholas, priest, 20, macrossan csecent, avocado acres, beecroft, 4163, nsw, 19071125, 9426109
rec-9373-dup-0, anthony, coleman, 173, burramurra avenue, john flynn hospital, jerrabomberra, 4557, vic, 19130528, 5722304
rec-7568-dup-0, matthew, ryan, 27, beattie crescent, sherwood, florey, 2706, vic, 19470404, 3634356
rec-93050-org, stephanie, white, , brunswick circuit, glen oak street, lynbrook, 3134, qld, 19690228, 1031199
rec-28691-org, kimberly, agius, 29, harry hopman circuit, merrimac heights, cambooya, 7054, nsw, 19330221, 2021812
rec-14480-org, blake, lember, 14, clift crescent, sheep station, lansdowne, 4304, nsw, 19611108, 7991941
rec-59576-org, jacob, clarke, 21, hudson street, , bayswater, 0812, qld, 19650913, 6250011
rec-11750-org, thomas, shelley, 381, archibald street, kilnacrott, esperance north, 2449, vic, 19870128, 1532628
rec-34871-org, zoe, shepherd, 25, cox street, , londonderry, 6011, vic, 19270714, 2111120
rec-69854-org, shane, paterson, 86, murphy street, , st kilda east, 4066, qld, 19340613, 9840138
rec-30324-org, kaysey, verco, 10, abrahams crescent, mlc centre, maryborough, 3078, sa, 19190223, 8813806
rec-48507-org, claudia, gillard, 22, allchin circuit, warra creek, nollamara, 2287, nsw, 19031031, 3984752
rec-30187-org, william, varcoe, 4, cochrane crescent, liselican, south grafton, 2154, qld, 19011019, 3854192
rec-25770-org, jacob, clarke, 3, finey close, gleneagle, burwood, 3147, qld, 19140307, 1402814
rec-32635-dup-0, annabelle, mccarthy, 17, wilshire street, glenmeagle, camperdown, 3337, vic, 19620403, 9142806
rec-672-dup-1, michelle, ryan, 16, , barklol, box hill south, 3184, vic, 19310414, 4524949
rec-24137-dup-0, datne, campbell, 954, hawker street, sommerset park, surry hills, 3074, nsw, 19580108, 8478951
rec-86135-org, bailey, lays, 1, diamond street, mcivor house, adelaide, 3677, vic, 19370315, 7491078
rec-43802-dup-0, ykle, chorsto, 36, penton place, stjohn of god hospital, ormond, 4069, nsw, 19521207, 8912716
rec-98024-org, rebecca, campbell, 694, mackennal street, the willows, caulfield north, 2444, vic, 19600616, 9976643
rec-76457-org, bailley, hoffman, , bandjalong crescent, sutton, biggera waters, 2068, nsw, 19740326, 9733177
rec-66201-org, hugh, walkley, 7, wattle street, jaholma park, campbelltown, 3149, nsw, 19650116, 4147508
rec-71454-org, matthew, colquhoun, 21, miller street, yaraan, port douglas, 2213, wa, 19700702, 1202887
rec-83735-org, dean, lodge, 13, cooling place, mt callan, dora creek, 4819, nsw, 19890408, 8575342
rec-70643-org, alice, sherriff, 1, burdekin street, dari, pymble, 3073, wa, 19411018, 6665790
rec-37868-org, emiily, nysten, 1, jaru place, urunga caravn park, gwynneville, 2070, wa, 19600806, 2857482
rec-45576-org, hayden, robson, 19, leita court, lazy acres, belmont, 5600, qld, 19041211, 9319064
rec-58261-dup-0, arren, campbell, 8, gosmanclose, greenban k garden, bacchus marsh, 3016, vic, 19760324, 8729617
rec-9594-org, carlin, lowe, 6, bennett street, woodsong, murdoch, 2320, vic, 19201224, 4500682
rec-98456-org, andrew, browne, 52, nemarang crescent, blue hills, lilydale, 4870, nsw, 19081031, 2277830
rec-3707-org, tahnee, maynard, 11, ijong street, nedlyn, spotswood, 2038, vic, 19620412, 7099458
rec-36794-org, pino, ryan, 76, maconochie crescent, kulcutra, moree, 2122, sa, 19170212, 1367994
rec-90742-org, makenzi, richmond, 8, vancouver street, gulmarg, wyoming, 2096, nsw, 19020704, 6768832
rec-77047-dup-0, hannqh, needham, 63, litchfield place, orcadiapark, taralga, 5161, qdl, 19821109, 6509632
rec-15619-org, lydia, mason, 14, longmore crescent, , south wentworthville, 2250, nsw, 19230115, 7713386
rec-72473-org, alia, berry, 5, zeitz court, tesbury, carabooda, 4870, nsw, 19940101, 7029072
rec-58806-org, harrison, campbell, 26, harry hopman circuit, glenmore cottage, winthrop, 7005, vic, 19610503, 4748050
rec-79219-org, alice, white, 9, maclean street, villa 18, ethelton, 3147, wa, 19190102, 5143482
rec-16287-org, tylah, saccardo, 51, gatton street, mt derriwong, modbury, 4125, , 19000306, 8920988
rec-6504-org, ryan, newport, 26, terry close, nioka, brighton, 2042, wa, 19140516, 1663205
rec-63897-dup-2, jacob, urenda, 4, mina wylie bcrescent, sherwood, port lincoln, 2763, nsw, 19790722, 2541363
rec-91660-org, jesse, everett, 21, melrose drive, pine hill, highett, 3437, sa, 19600324, 1083443
rec-67529-org, georgia, nowlan, , couchman crescent, rosetta village, port pirie, 2171, nsw, 19440919, 1599478
rec-91829-org, benjamin, steed, 10, angliss place, the summer place, annandale, 5412, wa, 19380518, 6738956
rec-90243-org, lauren, bristow, , cordeaux street, qunaba, north rocks, 6174, vic, 19770129, 8936418
rec-18151-dup-1, annabel, stephnson, 20, homann place, kookaburra village, ulverstone, 6061, nsw, 19860413, 5420272
rec-74599-org, marianne, paine, 22, catchpole street, st francis vlge, linley point, 6152, qld, 19741026, 5784561
rec-6097-org, ash, webb, 5, buggy crescent, , brighton, 2566, qld, , 7192023
rec-53920-org, alana, nguyen, 9, aspinall street, , highton, 7250, nsw, 19540610, 3643519
rec-34430-org, chelsea, miles, 107, westbury circuit, the olives, ermington, 2517, vic, 19370108, 4967175
rec-90897-org, dylan, carrel, 279, merrit place, allensleigh, tulka, 2777, nsw, 19670507, 1108339
rec-733-org, olivia, egan, 72, badimara street, rowethorpe, forest hill, 2106, nsw, 19040429, 2210504
rec-10936-org, lily, kubenk, 174, miranda place, burnside, northmead, 3156, wa, 19510607, 3135659
rec-46606-org, isaac, goldsworthy, 30, bootle place, wildefell, watervale, 4575, qld, 19690711, 1918588
rec-64659-org, rupert, cochrane, 35, leake place, kurramul, urangan, 3429, act, 19790420, 7201403
rec-6006-org, alex, binns, 2, parrabel place, c/-runaway bay marina, , 2260, nsw, 19160620, 7814043
rec-91755-org, matthew, papij, 31, geils court, glenferrie park, hoppers crossing, 5163, nsw, 19230725, 7759032
rec-2119-dup-0, andrew, crook, , fitchett tsreet, fairbank, eumunidi, 2118, qld, 19660109, 6443521
rec-83246-org, thomas, lowe, 8, macdowell street, nedabiah, goonellabah, 2026, nsw, 19081208, 9977590
rec-89262-org, , stubbs, , bonython street, cascade condo, preston, 3193, vic, 19791002, 5406981
rec-10080-org, madison, , 87, maribyrnong avenue, riverside ret vlg, macgregor, 2147, nsw, 19250607, 1772424
rec-85376-org, naomi, dillion, 16, osburn drive, dromard, st lucia, 3012, nsw, 19970331, 8345184
rec-58704-org, kynan, dixon, 12, burnie street, nesma, blackbutt, 2830, nsw, 19701231, 6937318
rec-64095-org, benjamin, garzo, 4, rosenthal street, , berwick, 3805, vic, 19200203, 9964774
rec-3051-org, alyssa, robson, 7, darling street, arcadia, kareela, 4556, nsw, 19300121, 4267915
rec-86843-org, annalise, felmingham, 20, kett street, clarence village, , 2850, sa, 19340419, 6733201
rec-56986-org, luke, eyre, 1, creed place, wahronga-lea, caulfield north, 4017, vic, 19681027, 7532508
rec-56627-org, william, nguyen, 601, handcock crescent, st vincent hospital, lulworth, 2160, nsw, 19110621, 1589814
rec-71015-dup-1, webb, jessica, 58, ironbark cerscent, kurrajlng, st clair, 6146, nsw, 19430210, 7829572
rec-458-org, lucas, green, 14, laughton street, avenue road, cann river, 4670, vic, 19690822, 1457747
rec-61041-org, dillon, verner, 180, jacobs street, tarlinup, balwyn north, 2904, tas, 19471205, 3818869
rec-87112-org, max, bacchus, 14, evelyn owen crescent, wearmouth, busby, 2535, qld, 19390523, 4232986
rec-65736-org, matthew, brain, 10, tullaroop street, masonic retirement village, port macquarie, 3124, nsw, 19220407, 8231577
rec-27445-org, chelsea, bishop, 16, cataract street, jaspars, aldershot, 2747, qld, 19960509, 4992068
rec-48215-org, daniel, subramaniam, 14, mugglestone place, lincoln close, campsie, 0880, nsw, 19600418, 5815026
rec-45711-org, michael, leslie, 344, charterisville avenue, sec 1, toukley, 3089, vic, 19571002, 6112419
rec-90563-org, michaela, alderson, 48, wybalena grove, meemar, east melbourne, 2263, nsw, 19570816, 3249240
rec-23146-org, amber, noble, 14, bent street, belaradah, eight mile plains, 7020, nsw, 19250706, 8131635
rec-9360-org, finnbar, white, 4, johnson place, dianella masonic village (cnr cornwell s, bonnyrigg, 3429, vic, 19360207, 1249821
rec-83472-org, wilson, ryan, 4, twamley crescent, taylors creek bridge, carlingford, 3051, nsw, 19881114, 5271601
rec-19436-org, jarrod, kalnins, 46, epacris place, redhill, mothar mountain, 5166, vic, 19381116, 5569173
rec-29725-org, jade, clarke, 15, taylor street, the plateau, malvern, 2228, vic, 19560205, 2920575
rec-17832-org, sophie, gold, 32, gidabal street, the willows, sale, 4413, nsw, 19270211, 6263651
rec-42882-org, michael, deakin, 29, jim pike avenue, berkeley village, greenwith, 2575, qld, 19810203, 4064926
rec-81968-org, chloe, kromwyk, 28, bates street, kodootonga, willetton, 2075, nsw, 19490708, 7543888
rec-92860-org, meg, clarke, 10, norman street, , brighton-le-sands, 2192, qld, 19311210, 5056261
rec-36763-org, ethan, whiteley, 58, ardlethan street, karmont, surfers paradise, 6210, nsw, 19230314, 1597507
rec-43924-org, william, cadman, 23, hickenbotham street, , chiltern, 2615, nsw, , 9634019
rec-65865-org, harriet, nguyen, 96, newman morris circuit, the willows, exeter, 4165, nsw, 19760206, 5963850
rec-56357-org, flynn, plumb, 22, woralul street, , semaphore park, 5041, qld, 19661014, 6860965
rec-67716-org, tahlia, weaver, 2838, boehm close, rsl park, emerald, 3021, nsw, 19780228, 5894535
rec-23205-org, bailey, lowe, 16, currong street, peppercorn lodge, wanneroo, 2077, nsw, 19830828, 5358058
rec-50192-dup-0, alexandra, white, 5, biraban place, diacos caravn prk, gunbower, 2925, nsw, 19170816, 3834593
rec-43817-org, brooke, bradshaw, 351, longstaff street, eriswell park, rosebud, 2615, nsw, 19961102, 4120381
rec-72117-org, phillip, pascoe, 25, the lawns, teasdale park, mackay north, 6123, nsw, 19991010, 2156011
rec-1268-org, zachary, dixon, 1421, mountain circuit, john flynn medical centre, bidwill, 2508, vic, 19450901, 2156566
rec-36063-org, tommy, carmody, 3, eucumbene drive, macamania, morwell, 3814, wa, 19250803, 8919016
rec-97611-org, eden, dolan, 148, beasley street, melita, canley vale, 4518, nsw, 19230708, 3798435
rec-84846-org, jordan, leung, 84, beard place, wattle brae, torquay, 4059, vic, 19670928, 6671209
rec-89525-org, emiily, hawes, 103, sheehan street, parkwood piazza, renown park, 2150, nsw, 19741217, 8518954
rec-59016-org, daniel, cowden, 39, darcy close, home vale, port lincoln, 6050, nsw, , 7904495
rec-41412-org, harriet, musolino, 16, barrallier street, , flaxton, 3463, nsw, 19260309, 9527716
rec-3606-org, fynn, mcfadden, , shean place, john flynn medical centre, berkeley vale, 2264, nsw, 19781220, 1349745
rec-7771-org, shaun, mccarthy, 130, jauncey court, , sea lake, 3153, nsw, 19470819, 7889840
rec-48331-dup-0, bagiley, weiser, 41, lubuma place, walnut grove estate, altona mradows, 3939, vic, 19441029, 3134870
rec-80654-org, julia, fitzpatrick, 2, federal highway, village walk (cnr high s street, broken hill, 3103, nsw, 19381111, 3393938
rec-71686-org, tommy, nguyen, 182, ewing street, principals residence, casula, 3806, qld, 19610404, 9490769
rec-88434-org, zane, thorpe, 97, la perouse street, aprtmnt 55, parramatta, 6005, qld, 19940922, 1316686
rec-55109-org, , tippins, 88, calder crescent, medical centre, toowoomba, 3204, qld, 19340620, 1880649
rec-96532-org, hayden, mckinnell, 3, yarra street, lutheran ret/villa, yarraville, 6281, sa, 19080211, 7271759
rec-46734-org, joshua, lehane, 3, whitelaw street, balmoral garden, glen innes, 3102, sa, 19041006, 2556997
rec-89710-dup-0, erin, astoey, 1, aspinall street, rose vale, ulladulla, 7250, nsw, 19781024, 6277311
rec-26444-dup-0, max, campbell, 32, officer crescent, granny flat 2, glencoe west, 2289, nsw, 19140719, 3615225
rec-16639-dup-0, christopjher, whkte, 303, villa 444 the village glen, leichhardt street, oyster bmay, 3172, sa, 19830532, 5490472
rec-89374-org, lachlan, statton, 19, churchill way, ferndale, lismore, 2257, sa, 19920919, 8656614
rec-3742-org, sophie, smallacombe, 32, bernacchi street, chateau tahbilk, albion park rail, 2540, vic, 19600307, 3647803
rec-64925-org, teneille, hand, 19, hodgson crescent, koonawarra merino stud, campbell town, 4506, sa, 19671016, 6674823
rec-26814-org, jai, huxley, 9, brereton street, birrabilla, maryborough, 4701, nsw, 19300131, 8251179
rec-249-org, sam, trenerry, 15, , hd dalrymple, bittern, 2092, sa, 19440901, 6398443
rec-73750-org, india, culph, 5, ashburton circuit, mandurah retirement village, mount pleasant, 7010, tas, 19251030, 1398750
rec-66227-org, lucy, noble, 30, a'beckett street, umina park, innaloo, 3561, nsw, 19631027, 8354888
rec-14845-org, kelsea, lipsett, 421, vagabond crescent, anukana, avoca north, 4879, qld, 19960220, 1171365
rec-23307-dup-0, jake, barbuto, 22, gosse street, , dawesville, 2508, nsw, 19200916, 1717600
rec-52508-org, nikita, crouch, 10, mcgivern crescent, winton, moorooka, 4306, nsw, 19840906, 2777691
rec-95821-org, caleb, hewetson, 20, bourchier close, jaholma park, regents park, 6065, vic, 19320805, 4612916
rec-18325-org, lachlan, morrison, 29, currong street, lansdowne, balhannah, 7170, vic, 19450803, 9137149
rec-9596-org, sebastian, stronach, 18, taylor street, albion heights, ngunnawal, 5302, vic, 19730406, 3210796
rec-69324-org, alexander, myriti, 36, swanton street, kalyra heights, carnegie, 6169, wa, 19780202, 6940204
rec-35153-org, holly, virag, 24, moore street, , mannum, 2209, act, 19710814, 2479322
rec-39635-org, alia, ebert, 73, nott street, halfmoon station, labrador, 6029, sa, 19020801, 8166620
rec-59753-org, ebony, reid, 140, waller crescent, stokes crossing, concord west, 2039, wa, 19421207, 1301398
rec-69122-org, matthew, white, 2, beilby place, cottonwood, regents park, 3338, vic, 19241117, 7686280
rec-23668-dup-0, archie, noble, 4, moore tsreet, hundred wokurna, deer park, 5166, qld, 19400530, 9536322
rec-33622-dup-1, chloe, tsinivits, 56, melrose drive, farmhouse, rosebery, 2602, nsw, 19660923, 4915003
rec-20840-org, sienna, brain, 59, coxen street, kooltuo, camden, 6109, qld, 19081108, 8707685
rec-96203-org, cameron, hillary, 19, verbrugghen street, , parkdale, 2640, nsw, 19080727, 5432179
rec-86640-org, cassandra, flaus, 131, girdlestone circuit, tatyara, coolaroo, 2166, wa, 19500131, 9676394
rec-79168-org, ethan, coleman, 5, pollock street, , islington, 5171, nsw, 19691214, 7087729
rec-77761-org, nicholas, jessup, 50, fitzherbert place, moonylora, north rocks, 3055, nsw, 19541013, 2976517
rec-98932-org, harrison, piliczky, 52, antill street, arcadia, , 6230, vic, 19641011, 2399329
rec-77029-dup-0, monique, dreckow, 22, bunavon, dallachys treet, floreat, 4209, nsw, 19921226, 1376551
rec-30725-org, finn, maier, 3, pudney street, diamond sands, ourimbah, 6225, qld, 19450915, 8748429
rec-33799-org, indiana, aiston, 2, warrego circuit, tulakan, clifton park, 4122, qld, 19771013, 7722136
rec-64426-org, eliza, vincent, 39, kallara close, billsblock, brighton, 5095, , 19980909, 5543879
rec-36244-org, macy, kelley, 14, laseron place, hmas, para hills, 2170, tas, 19470727, 3135557
rec-44328-org, caitlin, campbell, 45, cottrell place, caprion retiement, mount riverview, 3206, nsw, 19610915, 5606148
rec-62740-org, julia, heyes, 20, jessup street, lorrha, cleveland, 7252, vic, 19481107, 2840157
rec-37273-org, bayley, matson, 30, yanda street, lamington national, st agnes, 2560, qld, 19220921, 1975826
rec-16268-org, ethan, kalma, 33, lewis luxton avenue, the mall, landsborough, 2614, nsw, 19880618, 3705644
rec-20071-org, emiily, gerritsen, 13, bugden avenue, rosedale, oakleigh, 3621, nsw, 19491122, 3354380
rec-72386-org, georgia, campbell, 56, timbarra crescent, terrace caravan park, boulder, 4502, qld, 19561127, 9863229
rec-4982-org, finley, bowerman, 18, collocott crescent, villa 2, marsden, 2032, nsw, 19280806, 8011431
rec-59064-dup-0, rilay, biship, 24, bickleyclose, , acacia ridge, 2112, vic, 19870728, 4624973
rec-16080-org, samantha, warnett, 56, blacklock close, arnwood, springvale south, 4740, tas, 19880226, 3502938
rec-16929-org, serena, sherriff, 19, hotham crescent, biboohra downs, arana hills, 3168, qld, 19160409, 9636399
rec-8520-org, sarah, margush, 56, marconi crescent, mount patrick, burwood, 4060, qld, 19800921, 6062468
rec-62571-org, olivia, humphreys, 13, tregellas crescent, , mount eliza, 4034, qld, 19731007, 9078129
rec-45488-org, rachel, bishop, 46, fitzmaurice street, rocky bend, burwood, 2042, sa, 19480220, 7278247
rec-37886-org, mikayla, garcia, 27, max henry crescent, greenslopes, albury east, 2526, wa, 19780621, 8089329
rec-17283-dup-0, cooper, allanby, 10, gollan street, st francis vlge, paraburdoo, 2546, nsw, 19851118, 3037010
rec-64013-dup-1, jonah, finlay, 166, byrne street, , macgregor, 4223, vic, 19680418, 5664368
rec-99211-dup-0, chelsea, ryan, 108, cromwellc ircuit, , theodore, 4165, qld, 19191201, 2950739
rec-38024-org, zara, jolly, 19, reveley crescent, warrol, eastwood, 5092, vic, 19830929, 4552633
rec-70563-org, alisha, reid, 6, murchison street, flowery dell, lindfield, 2750, nsw, 19840227, 6617569
rec-7119-org, harrison, monteleone, 266, esau place, yarrabee, ingham, 2757, vic, 19290529, 1446454
rec-60347-org, , nicolle, 2, kilby crescent, noosa village shopping centre, thornbury, 4810, nsw, 19830713, 1442173
rec-64502-dup-0, mitchell, moody, 48, pinkerton circuit, sunny grees, wisanger, 2153, sa, 19260706, 6574097
rec-79970-org, , easlea, 6, mclaren crescent, glenmore, mentone, 5255, qld, 19580529, 3589767
rec-47387-org, niamh, mason, 35, shumack street, west bank, bayswater, 7250, qld, 19510210, 4946934
rec-43795-org, charlotte, de bono, 2, monaro crescent, gowan, tingalpa, 6027, sa, 19360807, 2464450
rec-46654-org, noah, dieckmann, 11, duffy street, ardersier, bongaree, 4812, nsw, 19490906, 6177861
rec-49745-org, noah, boyle, 111, bimberi crescent, brentwood vlge, karragullen, 6479, nsw, 19330818, 2169452
rec-24256-org, joshua, bishop, 15, carina street, mamaregu, south melbourne, 3031, nsw, 19881222, 8047483
rec-68254-dup-0, , etheryidge, 130, power stdreet, cummins, mount evelyn, 3028, vic, 19381216, 9986911
rec-4866-org, jacob, hennicke, 5, downward place, shanan brae, ivanhoe, 2770, nsw, 19100104, 8965763
rec-54232-org, luke, webb, 280, keartland street, braebourne, ardeer, 2250, vic, 19470204, 4946740
rec-51317-org, lily, bishop, 204, namatjira drive, chippendale village, bassendean, 4718, vic, 19900316, 1828727
rec-33918-org, isabella, dudgeon, 98, launceston street, kantz, drummond north, 5032, vic, 19210605, 8341121
rec-397-org, harry, menzies, 63, taronga place, earl haven, wangaratta, 7260, nsw, 19051228, 1183758
rec-44217-org, isabella, kerney, 4, eldridge street, principals residence, st kilda east, 3805, qld, 19020702, 1035324
rec-69698-org, jade, pegg, 7, bungonia street, jameson park upper swan, ascot, 2010, qld, 19021022, 6063439
rec-1397-org, chloe, shepherd, 51, tanjil loop, st vincents medical centre, st lucia, 2076, wa, 19120427, 7603855
rec-85924-org, emiily, thredgold, 4, beirne street, kersley mews, sylvania, 3073, sa, 19700716, 9048990
rec-51005-org, cassandra, montz, 21, tatchell street, koenarl, noble park, 3285, nsw, 19150425, 1700043
rec-22503-dup-0, samqel, lobzin, 1, richardson circuit, , cook, 2337, act, 19081112, 9514588
rec-49638-org, lauren, vincent, 139, hannan crescent, lakeside gardens tallwoods village, mayfield, 2230, nsw, 19580630, 2995928
rec-53685-dup-1, jayden, peavhey, 28, earle place, the mieadows, cooma, 5072, nsw, 19490604, 8145438
rec-84407-org, ryan, lodge, 128, alice jackson crescent, woodrose, moura, 2322, vic, 19860903, 8592774
rec-30905-org, benjamin, moody, 78, clive steele avenue, beachwood, lalor, 3444, vic, 19811017, 8021399
rec-10368-org, ben, shepherdson, 7, nambir court, fairholme, albion park rail, 3150, vic, 19940920, 4427880
rec-83998-org, benjamin, lock, 409, molesworth street, , kingston, 2577, vic, 19250807, 3615640
rec-38200-org, bailey, steinert, 3, ayers street, lords house, toowoomba, 3629, nsw, 19430429, 2234533
rec-39873-dup-1, alexandra, dolan, 7, syme rs street, newville cottage park, albany creek, 2351, nsw, 19300605, 2306839
rec-41759-org, , grubb, 3, bourne street, , cooks hill, 3021, vic, 19920227, 5874866
rec-12990-org, ellen, canavese, 24, dore court, sheep station, mount eliza, 3142, vic, 19610105, 3755622
rec-64661-org, cheree, shady, 21, stead place, hd curramulka, maiden gully, 2218, sa, 19510309, 1053854
rec-5944-org, daniella, quan, 4, hobart place, villa 116 henry kendall bayside, bondi junction, 3020, nsw, 19260519, 6073000
rec-26346-org, jordan, green, 150, curlewis crescent, rajamare, batemans bay, 5351, nsw, 19380625, 6366504
rec-480-org, jayden, nykamp, 24, dickinson street, booroondoo north, long jetty, 2203, vic, , 8845239
rec-30743-org, madeline, monteleone, 40, schonell circuit, grangemore, vermont, 2259, qld, 19580301, 2794297
rec-43813-org, benjamin, gillis, , dethridge street, dunoon (cnr camp r road, daw park, 2050, nsw, 19260210, 6959007
rec-31801-org, nicholas, vincent, 72, maitland street, henry kendall bayside, cooktown, 4226, act, 19650501, 6390576
rec-98950-org, jarod, mcneill, 23, , marylands, bacchus marsh, 3138, vic, 19660108, 5811696
rec-77664-org, keeley, crossman, 26, hibbins place, the vines caravan park, dulwich hill, 4019, nsw, 19430630, 2376553
rec-41279-org, rohan, paine, 26, reuther street, flr 2 dunkheld garden, athelstone, 3690, vic, 19810319, 9107548
rec-10634-org, annabel, o'farell, 44, merv waite street, elura homestead, millmerran, 4217, nsw, 19330709, 3999579
rec-37104-dup-1, , arabilla, 16, lyall crescent, darlfee, robertbon, 5039, qld, 19920902, 1357370
rec-84939-org, samuel, grindley, 9, hamilton row, springdale, berkeley vale, 6076, qld, 19080510, 1870799
rec-31894-org, jayden, byers, 28, sturt avenue, naygoondy, airds, 7267, nsw, 19791220, 7092902
rec-66293-dup-0, tristan, seewfaj, 600, investigator street, , noble park, 2615, nsw, 19170907, 1095503
rec-36017-org, tommy, brooker, 47, shepherdson place, phillip lodge, mount isa, 3197, qld, 19660210, 4926778
rec-22235-org, oliver, rundle, 51, woolcock street, bidgee park, blacktown, 3150, vic, 19861031, 9453912
rec-74860-org, laura, spicer, 63, mackennal street, tewantin plaza, ryde, 6285, nsw, , 1917747
rec-11089-org, ellouise, bradshaw, 2, pawsey circuit, wearmouth, michelago, 3141, qld, 19391214, 6341115
rec-68034-org, thomas, sternbeck, 12, tenison-woods circuit, wingara, cromer, 5163, nsw, 19581019, 1420468
rec-45867-org, charlie, denholm, 109, , calleen farm, darlington, 3167, sa, 19581004, 3637376
rec-76557-org, jaden, milburn, 47, spowers circuit, northbourne, keysborough, 6109, nsw, 19040124, 3309443
rec-24107-org, katie, quinton, 35, dalley crescent, argyle village, campbelltown, 2875, vic, 19760222, 8857947
rec-64572-org, connor, gonzales, 193, brahe place, brentwood vlge, kedron, 2795, qld, 19650807, 5830749
rec-77553-dup-2, fraser, dixon, , phillip avenue, cherrbhank, port noarlunga south, 6076, nsw, 19340811, 1803050
rec-11950-org, archer, soden, 52, giffen close, foran track, burwood, 7250, nsw, 19410130, 1943765
rec-34852-org, louise, glazewski, 61, temperley street, mollesmain, goonellabah, 2070, qld, 19920320, 4183119
rec-68927-org, holly, hawes, 52, ballumbir street, springdale, rochester, 2076, nsw, 19780611, 7178633
rec-88418-org, aleisha, ryan, 21, ovens street, racecourse, parmelia, 3786, wa, 19130410, 2475282
rec-32740-org, jaykob, gheller, 24, britten-jones drive, yarrandoo, candelo, 7250, vic, 19960211, 7191347
rec-46364-org, hannah, coleman, 86, walton street, ordview estate, cudal, 4825, qld, 19661216, 4700305
rec-61691-org, quinn, brock, 527, william hudson crescent, st francis vlge, lilydale, 4285, nsw, 19611104, 5486062
rec-81932-org, bailey, linnell, 14, william wilkins crescent, tilburoo, walkley heights, 2450, wa, 19080903, 4105563
rec-7963-org, katelin, viale, 3, pohlman street, , woy woy, 4226, nsw, 19380510, 1789321
rec-57668-org, benjamin, howie, 60, mulder place, apmnt 203, cabramatta, 4811, act, 19760317, 4941704
rec-10206-dup-0, emma, antuar, 12, noarlunga crescent, kantz, belrose, 4128, nsw, , 7928570
rec-43038-org, isabella, groenier, 12, fullagar crescent, utopia, everton, 2223, nsw, 19810724, 7137642
rec-3056-dup-2, strahger, aler, 90, malbooma, seal place, nhill, 5065, nsw, 19350911, 3504218
rec-90250-org, christopher, richmond, 20, ngunawal drive, strabane, nelson, 3131, qld, 19140709, 9428689
rec-57838-org, toby, dolby, 143, meredith circuit, southern cross, toronto, 3021, nsw, 19461024, 6417122
rec-25009-dup-0, tahila, psorajis, 2255, chewings street, osborne house, yamba, 3058, nsw, 19150809, 9798622
rec-93566-org, caleb, heron, 19, skinner street, , belrose, 3150, nsw, 19450201, 4497237
rec-87108-org, max, wrighte, 17, lucy gullett circuit, redwood village, springfield, 5502, nsw, 19650327, 7788376
rec-17338-dup-1, joel, ewbb, 66, beattie crescent, rosehill, acacia ridge, 5050, vic, 19870918, 8055341
rec-31660-org, henry, shepherd, 7, badimara street, munroe home, cherry gardens, 6020, qld, 19350922, 1725877
rec-77423-org, isabella, miles, 20, carnegie crescent, lorne park, oak park, 2040, wa, 19620810, 6831002
rec-60191-org, benjamin, oyevaar, 4, scrivener street, poplars, maryborough, 4817, vic, 19390416, 1737632
rec-79970-dup-3, channing, easlea, 6, mclaren crescent, glenmire, mengone, 5525, qld, 19580529, 3589767
rec-70723-org, meggie, ma, 27, howitt street, water view, taree, 3910, sa, 19220409, 2093648
rec-16545-org, mitchell, sidlauskas, 24, miller street, professional centre, murray bridge, 2074, nsw, 19990801, 9652555
rec-6967-org, keeley, green, 17, magrath crescent, rsl westhaven, north curl curl, 6025, nsw, 19360730, 6238371
rec-50029-org, zachariah, mahon, 14, wenholz street, st francis vlge, point lonsdale, 5152, vic, 19880807, 8903453
rec-64519-org, dylan, gibb, 212, howitt street, waiweer, berwick, 3122, nsw, 19811014, 5224370
rec-83706-org, william, golder, , salsola street, anzac house (cnr archer s street, preston, 4207, qld, 19630422, 3898728
rec-22171-org, stephanie, matthews, 8, hobart place, sunrest stud, dinner plain, 3095, qld, 19870110, 2371197
rec-2851-org, hannah, puttnam, 71, o'sullivan street, herbert river, findon, 2502, nsw, 19990214, 4298255
rec-89175-org, zachary, ryan, 78, ennor crescent, homestead caravan park, alfred cove, 3079, vic, 19260303, 2213614
rec-39617-org, william, snelling, 11, gollan street, links court (cnr susanne s street, springwood, 3129, vic, 19560622, 7622733
rec-24506-dup-1, bailey, nguyen, 32, clemen t place, wheogo, halls creek, 4306, wa, 19980329, 1074447
rec-44533-org, zachary, stephenson, 9, barraclough crescent, , surfers paradise, 5162, nsw, 19530219, 8571127
rec-45942-org, serena, hanna, 25, macqueen place, chelsea house, pallamallawa, 2066, nsw, 19510430, 2904376
rec-79367-org, lachlan, le messurier, 131, woralul street, carinya ski ranch, bonnyrigg, 4352, vic, 19491215, 3452361
rec-19852-org, adam, millar, 72, marlock street, allanvale, wantirna, 5061, act, 19720607, 6910630
rec-84625-org, chloe, rees, 23, unaipon avenue, wattagan vale, port douglas, 3168, tas, 19450615, 8840345
rec-31268-org, cooper, mcfadden, 767, osburn drive, jewells medical centre, cabramatta, 4226, qld, 19150303, 9248347
rec-58729-org, bradley, webb, 125, nardoo crescent, fassifern retirement village, kalamunda, 2489, qld, 19771105, 3253875
rec-87037-org, natasha, webb, 16, gilmore crescent, trefusis, boronia heights, 5253, sa, 19250321, 1610488
rec-40099-org, saskia, zoontjens, 100, state circle, coolibah, st clair, 4551, wa, 19090822, 5899264
rec-96475-org, flynn, depold, 16, coningham street, , wanniassa, 6149, sa, 19290119, 1812910
rec-22363-org, lachlan, denholm, 12, beasley street, hold fast shores, camden, 4280, nsw, 19810831, 9799365
rec-95922-org, ambrosia, gilbertson, 2, elvire place, court units, rouse hill, 4020, nsw, 19800224, 1113477
rec-70276-org, teileah, spargo, 332, abernethy street, goldenoaks village, coolbellup, 4340, vic, 19830507, 7336721
rec-91225-org, jackson, godfrey, 39, chirnside circuit, , loganlea, 6210, nsw, 19610204, 1613447
rec-78896-org, kane, rankine, 26, bacchus circuit, lawrence house, broadmeadows, 3214, act, 19421203, 2522290
rec-40827-org, kaitlin, hawes, 9, wheeler crescent, hamilton park, deer park, 3175, vic, 19640504, 3466862
rec-28609-org, alexandra, lowe, 2, stonehaven crescent, the willows, cooma, 2264, nsw, 19500703, 5129565
rec-85310-dup-1, sarah, quinton, 98, woralul street, c/-runawaybay marina, laverron, 2200, wa, 19931208, 1547785
rec-8225-org, mitchell, wevill, 8, corinna street, the pinnacle, brookvale, 2611, , 19050630, 2536558
rec-96530-org, jaden, debrenni, 451, wiburd street, brentwood vlge, armidale, 6397, qld, 19720607, 1041577
rec-5153-org, archer, crosswell, 6, nullagine street, villa 2, granville, 2768, vic, 19610914, 3001929
rec-90508-org, chelsie, rawlings, 36, sparkes close, backacres, banksia, 6164, vic, 19290720, 4259778
rec-99567-org, jacob, benjamin, 215, maurice place, dananbilla, port pirie, 6152, vic, 19740709, 4448995
rec-37556-org, tara, donaldson, 7, harrington circuit, , pennant hills, 3185, wa, 19801121, 6113460
rec-30192-org, heath, halberda, 38, caffyn place, , russell lea, 3093, nsw, 19150201, 8721186
rec-17352-dup-0, joly, silas, 72, tilden place, caroona village, redan, 2576, vic, 19030815, 4771966
rec-84951-org, joshua, dietrich, 102, connelly place, the dales, kings park, 4030, nsw, 19380508, 6710173
rec-93413-org, stephanie, bradshaw, 32, rosenthal street, brentwood vlge, seymour, 3139, nsw, 19050408, 6720575
rec-79387-org, gianni, garven, 1, schwarz place, spring banks, ballina, 4183, nsw, 19750122, 7419447
rec-19622-org, ridley, coleman, 59, parfitt crescent, summerdale medical centre, berkeley vale, 2030, qld, 19841230, 7628839
rec-57262-org, rachel, ferrazzola, 85, bosworth circuit, hopkins view, railway estate, 3072, qld, 19690720, 3468781
rec-31554-org, tiffany, white, 53, thomas hart street, lemnos, belmont, 3165, vic, 19961022, 4296598
rec-13432-org, madison, mcjannett, 318, goble street, magellan, cabramatta, 2831, vic, 19840207, 4731943
rec-45105-dup-3, ella, reizd, 51, tallaranie, amherst street, greensborough, 2478, vic, 19310802, 8054446
rec-87736-org, braedon, leishman, , scantlebury crescent, bellhaven estate, wahroonga, 4562, vic, 19870215, 3244829
rec-13291-org, charlie, bishop, 147, sculptor street, , mooloolaba, 6101, vic, 19651102, 5553992
rec-19207-org, peyton, campbell, 5, backhouse street, rainbow ridge, dianella, 4701, nsw, 19971102, 8639299
rec-93450-org, lauren, noble, 27, moonbi crescent, peppertree, toowoomba, 2446, vic, 19111109, 2780838
rec-9144-org, andrea, geue, 21, brigalow street, sheep station, dromedary, 6168, vic, 19471104, 1647982
rec-56332-org, tara, gillard, 11, kingston street, lawless, broulee, 4680, wa, 19650424, 1785071
rec-87937-org, lucy, gillick, 54, bowden place, norland, nubeena, 3039, vic, 19071206, 9956263
rec-19052-org, layla, clarke, 15, starling place, , yarrawonga, 2525, vic, 19760501, 5344819
rec-49472-org, jamie, noble, 59, westbury circuit, chambigne, hughes, 3824, vic, 19521027, 7155867
rec-12912-org, neneh, petersen, 12, sexton street, eden park, manuka, 3150, nsw, 19761019, 8914114
rec-29817-org, michael, dixon, 21, anketell street, kyree, wangaratta, 6450, vic, 19371024, 8328181
rec-20828-org, chloe, green, 1, lambrigg street, kippilaw, burleigh heads, 4569, vic, 19110222, 4760805
rec-53388-org, jacob, dabinet, 5, masson street, brentwood vlge, drysdale, 2388, nsw, 19601005, 6761863
rec-445-dup-1, melissa, morrison, 52, foxall street, , patterson lakes, 2209, qld, 19201029, 2520725
rec-34273-dup-3, brydon, green, 33, gwanvalan, light street, goodwood, 3550, nsw, 19490613, 6482919
rec-16554-org, chloe, spicer, 135, holland street, bedgebury park, rosebud, 4551, act, 19290116, 8850495
rec-84508-org, emiily, green, 8, rubicon street, marando, st lucia, 4370, nsw, 19940622, 7911930
rec-8966-org, caitlin, kaplan, 1, grace place, , yorkeys knob, 6062, vic, 19630419, 9573362
rec-52078-org, travis, carmody, 9, burbidge crescent, mount patrick, mosman, 2340, qld, 19700505, 3126762
rec-14282-org, jayden, zilm, 602, , villa 724 henry kendall vlge, , 3805, sa, 19310808, 9435570
rec-65722-org, olivia, pontifex, 59, currie crescent, sect 329, burpengary, 2650, nsw, 19031123, 5811995
rec-52769-dup-3, liam, frw, 5, connibere crescent, mostlye dar, rochester, 5024, vic, 19340911, 9660122
rec-13344-org, samuel, berry, 31, belconnen way, anona farm, southbank, 6081, vic, 19080303, 2746177
rec-77878-dup-0, polly, polmear, 27, ahern place, , rose bay, 4702, wa, 19780823, 8063977
rec-52396-dup-0, abby, boyle, 2, tyson street, king ash bay, bowaro, 6111, wa, 19520101, 9862162
rec-17068-org, lachlan, ranson, 21, currie crescent, honeywood, atherton, 4017, vic, 19101215, 7149076
rec-36193-org, samuel, gillard, 1, stonehaven crescent, iron bark ridge, shorncliffe, 5173, nsw, 19810508, 5974802
rec-1040-dup-0, ned, byers, 4, plante place, nordale farm, casuae ina, 4152, nsw, 19060929, 2373352
rec-46021-org, alicia, wheatley, 4, gungurra crescent, beau-lieu, keysborough, 2756, sa, 19460617, 6045128
rec-24606-org, olivia, campbell, 28, fitzhardinge crescent, , attunga, 2251, qld, 19730730, 7698402
rec-2681-org, marleigh, hudd, 64, moroney street, locheil, attwood, 3020, qld, 19691025, 2240049
rec-91487-org, joel, doody, 73, lyon place, riverside professional centre (cnr banks, campbelltown, 2000, vic, 19400301, 9434912
rec-60099-org, lachlan, brunoro, 16, chandler street, wealdstone, , 0870, nt, 19341001, 3867458
rec-9444-org, lucas, thorpe, 49, macquarie street, leumeah, wendouree, 3139, vic, 19490818, 3919268
rec-22081-org, georgia, leslie, 95, bindaga street, curtis park, greensborough, 6530, vic, 19301223, 9958506
rec-87321-org, chloe, conaghty, 2, marsh place, glenlee, burleigh heads, 2261, qld, 19690522, 5748232
rec-17250-org, eden, berryman, 7, pickworth street, crowden, crows nest, 6027, nsw, , 5998272
rec-32096-org, nicholas, bail, 44, karney street, paradome, lalor, 2806, nsw, 19070102, 9649351
rec-19544-dup-2, nicholas, caine, 20, wickham ciescent, , clarendon vale, 4509, nsw, 19530323, 2268986
rec-31158-org, jade, zoanetti, 29, port jackson circuit, polynesian village, preston, 3099, vic, 19530722, 3714714
rec-79390-org, georgia, shelley, 18, wakool circuit, st andrew's village, wyrallah, 3713, nsw, 19751231, 1449451
rec-37195-org, arren, hyland, 7, tardent street, murray eden, greensborough, 4880, vic, 19290625, 3285137
rec-70617-org, charlotte, dunnicliff, 23, kilburn close, kokoda hostel, smithfield, 3037, nsw, 19671114, 7200783
rec-71800-org, shantal, hope, 92, flinders way, kangaroo grnd, midland, 3107, qld, 19430922, 8892976
rec-79046-org, thomas, mcphail, 653, tattersall crescent, , sadleir, 4164, nsw, 19850227, 7242559
rec-83192-dup-2, bradshaw, brooke, 12, lazy acres, shearerplace, eaglemont, 2765, vic, 19440429, 6284168
rec-50508-dup-1, , wvb, 11, morriso npark, hazel smitj crescent, jamboree heights, 6000, wa, 19760515, 8516618
rec-72665-org, kane, nguyen, 59, bugden avenue, prospect creek, brighton, 4514, qld, 19030418, 4084877
rec-71147-org, jacqueline, mcphail, 58, heronswood court, rosetta village, queenscliff, 2777, qld, , 2584474
rec-67551-org, , brann, 16, mcintyre street, , mooroolbark, 6060, vic, 19480527, 3090996
rec-43562-org, mitchell, afford, , kosciusko avenue, commercial centre, albury, 5107, vic, 19960507, 8238859
rec-68-org, tiahnee, mason, 31, shannon circuit, yarrabin, budgewoi, 2112, vic, 19360617, 4607704
rec-43137-dup-1, jett, egan, 9, nardoo crescent, mirrimer, forestdale, 2671, wa, 19521207, 8340059
rec-65793-org, madison, egan, 42, burkitt street, lorrha, granville, 6028, nsw, 19530927, 9853603
rec-7077-org, lewis, egan, 1, supply place, sec 26, devonport, 5290, tas, 19490112, 7223496
rec-63907-org, emma, rankine, 4, cleland street, st helens, andergrove, 3712, nsw, , 3418952
rec-20469-dup-2, mitcheol, stephenson, 4, atherton street, donnachaidh, warilla, 2483, qld, , 8675567
rec-60868-dup-0, brokoe, stanley, 39, lienhop street, fraser lodge, evandale, 4109, nsw, 19651209, 4088685
rec-3897-dup-0, nathna, bradmhaw, 33, ennor crescent, , cromer, 4856, nsw, 19710508, 9119140
rec-14544-dup-0, rebecca, bambino, 505, mackellar c rescent, , east launceston, 7019, nsw, 19560723, 6051282
rec-43608-org, , orchard, 1, knoke avenue, moonkirra, kariong, 3060, nsw, 19770304, 1498257
rec-32039-org, charlotte, munford, 284, leahy place, st mathews retmnt, eight mile plains, 7016, tas, 19711226, 8182186
rec-88702-org, alissa, trent, 74, carleton street, stonehenge, annandale, 7248, wa, 19450531, 4066175
rec-20742-org, shaun, zealley, 40, calder place, eulong, st lucia, 3352, nsw, 19731018, 8861270
rec-85974-org, kaitlin, morrison, 22, medley street, , rowville, 2429, qld, 19770215, 5035149
rec-10590-org, madelyn, lagrone, 380, windich street, rsm 849, hawks nest, 2206, vic, 19870104, 4600269
rec-9580-dup-0, emiily, blowes, 14, baldwin drive, cherrbyank, valentine, 7250, vic, 19650210, 6632173
rec-23481-org, joshua, rendulic, 32, cooling place, woodburn pastoral, roselands, 2110, nsw, 19630906, 5366262
rec-59954-org, ella, ferris, 141, companion crescent, c/o post office, beecroft, 3161, vic, 19060314, 5840205
rec-45772-org, nicola, sierakowski, 1, bugden avenue, mossburn, unanderra, 2034, sa, 19610224, 8279457
rec-51634-org, shaun, zanelli, 27, weddin circuit, turramurra house, jolimont, 2034, nsw, 19440822, 7870120
rec-53366-dup-1, kirra, gieru, 1, bee pl ace, coryndirk, morwe ll, 2257, vic, 19130620, 7835793
rec-68954-org, finn, joselin, 21, nerli place, hybernia park, toronto, 6006, nsw, 19910225, 5833045
rec-39079-org, emmerson, egan, 10, gundara street, rockview, arrino, 4825, tas, 19290619, 9714865
rec-61172-org, hayden, nguyen, 6, woodhouse place, kalang, elwood, 2115, qld, 19090514, 4603697
rec-44944-org, patrick, spicer, 21, ferguson circuit, , ringwood, 6105, tas, 19630706, 8560835
rec-43428-dup-2, sophie, tsouris, 21, atherton treet, flower arowers, corrimal, 3940, nsw, 19140827, 5758936
rec-67943-org, aidan, leslie, 12, culgoa circuit, nyora, tea tree gully, 4521, nsw, 19740917, 2734512
rec-64485-org, solomon, worsey, 68, , , lake eacham, 4680, vic, 19630803, 5581677
rec-18305-org, solomon, bullock, 21, atkinson street, brentwood vlge, sanctuary point, 6728, qld, 19270922, 8955336
rec-73677-org, emiily, herbert, 19, cassia place, , coolaroo, 3087, qld, 19540430, 4833443
rec-34934-org, stirling, , 62, sherwin place, crawford, mount ommaney, 4158, qld, 19350915, 5092185
rec-6521-org, judah, muhanna, 22, macrossan crescent, braiden, murrabit, 4680, vic, 19960710, 3105296
rec-70761-dup-0, aurora, hofman, 6, wanliss s treet, crystal creek reserve, cooks hill, 3944, nsw, 19080622, 6029828
rec-49970-dup-0, benjamin, sedunary, 23, millel street, oak park, broadmeadows, 5013, nsw, 19960504, 2746076
rec-81466-org, charlie, secomb, 99, , west park, carnegie, 2250, vic, 19770622, 2793276
rec-453-org, tyler, ryan, 153, battersby circuit, old farm, , 6012, vic, 19910225, 4847057
rec-98591-org, kayla, grainger, 195, rodway street, gunn's gully, campbellfield, 2230, nsw, 19080508, 1699755
rec-13196-org, patrick, koutlakis, 77, hicks street, yarrimbah, elermore vale, 3123, nsw, 19181128, 7028346
rec-12681-org, georgia, goldsworthy, 108, roseworthy crescent, glenmore, bicton, 3170, vic, 19920630, 4817650
rec-2293-org, taylah, cordiner, 41, magrath crescent, namarva station, poowong, 4807, nsw, 19820425, 9962669
rec-13811-org, thomas, noack, 14, namadgi circuit, whispering pines, round corner, 2800, vic, 19580518, 6956650
rec-25495-org, lillianna, kempe, 19, old charnwood road, , coombabah, 5062, vic, 19420614, 2751457
rec-31793-org, brodee, chorley, 42, messenger street, inglewood, windsor, 3201, qld, 19251023, 2344670
rec-1205-org, kiana, roche, 24, moulden court, simpson army barracks, elanora heights, 2223, sa, 19440210, 9861788
rec-22401-dup-1, andrew, campbell, 8, midgestreet, the sycamores, blackmans bay, 2031, nsw, 19980309, 9027389
rec-58995-dup-1, reid, mackinley, 15, , , hamilton, 2229, nsw, 19611222, 7378277
rec-95516-dup-1, hannah, heiron, 3, nepean shores, hago n place, woodcroft, 3461, vic, 19190624, 6361483
rec-82931-org, isabella, paterson, 42, blazey place, st john of god hospital, eaton, 3360, vic, 19081015, 1057694
rec-3161-dup-0, dante, campbell, 12, fernbank, osburn ydrive, salis bury, 3223, sa, 19150508, 9012674
rec-8293-dup-3, jack, cain e, 1, totterdell street, the willows, port mcaquarie, 2121, vic, 19820202, 9399474
rec-50649-org, amy, backcoller, 77, gallagher street, st francis vlge, salisbury heights, 4870, nsw, 19900225, 7992430
rec-47806-org, isabella, reid, 21, finnerty place, remnah park, kedron, 5172, nsw, 19980302, 8150650
rec-48689-org, emiily, webb, 1, connibere crescent, wahronga-lea, mount eliza, 5108, vic, 19711002, 1070387
rec-20297-org, jackson, bullock, 37, harrison street, , salisbury heights, 2486, vic, 19701129, 3520890
rec-76632-org, jessica, seng, 50, marou place, laure, belrose, 4558, sa, 19250305, 4213725
rec-82332-org, ethan, tsaousi, 280, culgoa circuit, mansfield park, wangi wangi, 3945, nsw, 19571226, 2490993
rec-25854-dup-0, jack, robson, 62, lindrum crescent, , , 3627, vic, 19300108, 3285702
rec-61108-org, abbey, haraszti, 63, alexandra street, , hoppers crossing, 4108, qld, 19651214, 5104218
rec-84689-org, macey, green, 23, longford street, barwon station, carlingford, 2518, wa, 19320128, 6191884
rec-76485-org, shane, nye, 32, keverstone circuit, st francis village, pingelly, 2137, nsw, 19281103, 1014030
rec-63624-org, tyler, schillier, 34, woodfull loop, locn 1487, tusmore, 4573, qld, 19160330, 3189620
rec-18115-org, isabelle, ferris, 14, becke place, , mount isa, 2075, vic, 19750710, 1558336
rec-55779-org, abbie, colquhoun, 1, laycock place, , bargara, 2480, vic, 19920909, 9838123
rec-78801-org, li, berry, 12, learmnth drive, lynden park stud, broken hill, 6014, vic, 19271005, 5315721
rec-597531-org, , reid, 140, waller crescent, stokes crossing, concord west, 2039, wa, 19421207, 1301398
rec-711471-org, jacqueline, mcphail, 58, heronswood court, rosetta village, queenscliff, 2777, qld, , 2584476
rec-207421-org, shawn, zealley, 40, calder place, eulong, st lucia, 3352, nsw, 19731018, 8861270
rec-172501-org, eden, berryman, seven, pickworth street, crowden, crows nest, 6027, nsw, , 5998272
rec-133441-org, sam, berry, 31, belconnen way, anona farm, southbank, 6081, vic, 19080303, 2746177
rec-449441-org, patrick, spicer, 21, fg circuit, , ringwood, 6105, tas, 19630706, 8560835
rec-681-org, tiahnee, mason, 31, shannon circuit, yarrabin, budgewoi, 2112, vik, 19360617, 4607704

